OBJECT_NAME,OBJECT_ID,NORAD_CAT_ID,EPOCH,MEAN_MOTION,ECCENTRICITY,INCLINATION,RA_OF_ASC_NODE,ARG_OF_PERICENTER,MEAN_ANOMALY,MEAN_MOTION_DOT,MEAN_MOTION_DDOT,REV_AT_EPOCH,BSTAR,orbital_period_min,altitude_estimated,drag_index,energy_index,orbit_type,orbit_family,anomaly_score,anomaly_flag
HORIZONS-3E,2018-074B,43633,2025-10-13 20:30:51.702048,1.00269783,0.00017749,0.0142,206.4973,85.1884,207.6737,0.0,0.0,2587,0.0,1436.1255773337018,35794.29320380342,0.0,0.4973130482909091,GEO,GEO,-0.026685391170252815,1
CENTISPACE-1 S1,2018-075A,43636,2025-10-13 23:22:59.236608,14.59616742,0.00089319,97.9003,317.7895,166.1269,194.0179,8.42e-06,0.0,37463,0.00018595314,98.65603473600058,701.5487646536376,1.660914851166e-07,0.0023468878254800716,LEO,LEO,-0.18727310898490018,1
SAOCOM 1A,2018-076A,43641,2025-10-13 23:49:20.750592,14.82145223,0.0001456,97.8882,112.2751,88.286,271.852,6.67e-06,0.0,37963,9.0310101e-05,97.15647142088451,629.697876924698,1.3149150705599999e-08,0.002276085054725393,LEO,LEO,-0.21776341983811914,1
YAOGAN-32 A,2018-077A,43642,2025-10-13 23:27:51.780960,14.62790892,0.00012884,97.9315,316.1736,99.1017,261.0332,1.075e-05,0.0,37384,0.00021954522,98.44195830554844,691.3137827766905,2.8286206144799997e-08,0.0023367137237247627,LEO,LEO,-0.19803759166434637,1
YAOGAN-32 B,2018-077B,43643,2025-10-13 23:27:42.321888,14.62789721,0.00013798,97.9316,316.1331,99.48,260.6558,1.067e-05,0.0,37383,0.0002179815,98.44203711081451,691.3175518161806,3.007708737e-08,0.002336717464922594,LEO,LEO,-0.19794183455325293,1
BEIDOU-3 M16,2018-078A,43647,2025-10-11 09:54:23.302944,1.86232174,0.00059836,54.3167,308.7002,18.7802,341.2805,-4.4e-07,0.0,4752,0.0,773.228368155118,21535.071284114758,0.0,0.14416524626731933,MEO,MEO,0.004807379147236057,-1
BEIDOU-3 M15,2018-078B,43648,2025-10-12 01:53:37.499136,1.86232124,0.00025544,54.3116,308.6779,20.1037,339.9442,-4.4e-07,0.0,4755,0.0,773.2285757531284,21535.076278969107,0.0,0.14416532367891863,MEO,MEO,0.004085316573186004,-1
AEHF-4 (USA 288),2018-079A,43651,2025-10-13 21:39:06.520320,1.0027436,0.00571454,1.4904,342.792,6.4864,290.6246,-2.89e-06,0.0,2582,0.0,1436.0600257134524,35793.01011066315,0.0,0.49726764984860183,GEO,GEO,0.03353287192255705,-1
HAIYANG-2B,2018-081A,43655,2025-10-13 23:11:48.815808,13.79308029,9.311e-05,99.3361,294.4091,164.3054,195.8127,2e-08,0.0,35098,4.5112661e-05,104.40017528528429,973.4790860777166,4.2004398657099995e-09,0.0026281338251345696,LEO,LEO,-0.16736382987445947,1
COSMOS 2528,2018-082A,43657,2025-10-13 19:40:44.882688,13.96686506,0.00049434,67.1489,316.5462,252.564,107.4905,-2.9e-07,0.0,35554,3.3039291e-05,103.10116076971678,912.4288681650851,1.6332643112940002e-08,0.0025631388291046937,LEO,LEO,-0.17919096245178373,1
CFOSAT,2018-083A,43662,2025-10-13 23:05:21.139872,15.16392477,0.00015097,97.3652,293.7379,118.1173,242.0214,6.224e-05,0.0,38512,0.00032375862,94.96222263307892,523.8913543264835,4.88778388614e-08,0.0021744366626674496,LEO,LEO,-0.22550628869006706,1
GOSAT 2 (IBUKI 1),2018-084B,43672,2025-10-13 13:14:45.544128,14.84262394,0.00014522,97.8646,36.3327,90.0719,270.0662,3.645e-05,0.0,37697,0.00044130816,97.0178861784192,623.0390361616182,6.40867709952e-08,0.0022695964116822686,LEO,LEO,-0.2126994705818519,1
KHALIFASAT,2018-084F,43676,2025-10-13 23:09:02.879424,14.9993019,0.00081769,98.1014,94.5371,199.6166,160.4743,4.12e-05,0.0,37884,0.00033685878,96.00446804794295,574.2488352455184,2.7544605581820003e-07,0.002222429081107373,LEO,LEO,-0.21393995882666167,1
TEN-KOH,2018-084G,43677,2025-10-13 22:26:46.856256,15.01254647,0.00086691,98.0733,104.1983,194.7665,165.3306,3.517e-05,0.0,37919,0.00027860237,95.91976969913752,570.1633473504935,2.415231805767e-07,0.0022185094085492817,LEO,LEO,-0.21606266594871598,1
DIWATA-2B,2018-084H,43678,2025-10-13 23:37:19.600032,14.98985993,0.00073371,98.1073,108.0408,211.5788,148.4994,3.949e-05,0.0,37931,0.00033118893,96.0649403479783,577.165026546727,2.429966298303e-07,0.0022252297367044336,LEO,LEO,-0.21242806977803508,1
STARS-AO,2018-084J,43679,2025-10-13 19:48:09.870336,15.12994612,0.00013529,98.0707,120.9257,307.3147,52.7959,0.00010161,0.0,38016,0.00057934263,95.17548764410273,534.2104700490772,7.837926441269999e-08,0.0021842142766909604,LEO,LEO,-0.19784952353338092,1
AUTCUBE 2,2018-084K,43681,2025-10-13 17:57:58.487904,15.0747118,0.00098728,98.0843,115.0205,150.6929,209.4853,7.406e-05,0.0,37976,0.00049218348,95.52421426723396,551.0674897078597,4.859229061344e-07,0.002200249689277687,LEO,LEO,-0.21581538696857172,1
BEIDOU-3 G1,2018-085A,43683,2025-10-13 22:07:38.657280,1.00271001,0.00030158,2.9547,104.3077,15.9932,14.4405,-2.88e-06,0.0,2559,0.0,1436.108132599574,35793.95174628274,0.0,0.4973009665602419,GEO,GEO,-0.005402985504040725,1
COSMOS 2529 [GLONASS-M],2018-086A,43687,2025-10-11 11:22:19.926336,2.13101925,0.00094108,64.2926,200.991,257.2495,102.6827,1.5e-07,0.0,5398,0.0,675.7329855185494,19137.03041246609,0.0,0.1101020128563397,MEO,MEO,-0.03295425441539479,1
METOP-C,2018-087A,43689,2025-10-13 22:06:41.012928,14.21479054,0.00018606,98.7016,345.5808,131.877,228.2566,1.7e-06,0.0,35984,9.7808898e-05,101.30293485140584,827.492087161183,1.819832356188e-08,0.0024745092133266243,LEO,LEO,-0.17294226191044737,1
GSAT-29,2018-089A,43698,2025-10-13 22:14:10.656672,1.00273265,0.00025765,0.0596,86.3237,135.2669,189.7218,7.1e-07,0.0,2532,0.0,1436.0757077173064,35793.31706856824,0.0,0.4972785103915322,GEO,GEO,-0.03256637569316634,1
ES'HAIL 2,2018-090A,43700,2025-10-13 22:05:48.958656,1.002713,0.00020493,0.0158,252.1263,353.3272,134.5424,1.31e-06,0.0,2520,0.0,1436.1038502542604,35793.86792484472,0.0,0.49729800075113584,GEO,GEO,-0.007412559848047673,1
BEIDOU-3 M17,2018-093A,43706,2025-10-08 05:24:30.430080,1.86228101,0.00081076,54.1755,190.846,297.9561,252.854,3.4e-07,0.0,4684,0.0,773.2452794543611,21535.47817227474,0.0,0.1441715524205375,MEO,MEO,-0.009062879264787549,1
