HORIZONS-3E             
1 43633U 18074B   25286.85476507  .00000000  00000+0  00000+0 0  9992
2 43633   0.0142 206.4973 0001774  85.1884 207.6737  1.00269783 25872
CENTISPACE-1 S1         
1 43636U 18075A   25286.97429672  .00000842  00000+0  18595-3 0  9996
2 43636  97.9003 317.7895 0008931 166.1269 194.0179 14.59616742374633
SAOCOM 1A               
1 43641U 18076A   25286.99260128  .00000667  00000+0  90310-4 0  9995
2 43641  97.8882 112.2751 0001456  88.2860 271.8520 14.82145223379634
YAOGAN-32 A             
1 43642U 18077A   25286.97768265  .00001075  00000+0  21955-3 0  9992
2 43642  97.9315 316.1736 0001288  99.1017 261.0332 14.62790892373848
YAOGAN-32 B             
1 43643U 18077B   25286.97757317  .00001067  00000+0  21798-3 0  9995
2 43643  97.9316 316.1331 0001379  99.4800 260.6558 14.62789721373838
BEIDOU-3 M16            
1 43647U 18078A   25284.41276971 -.00000044  00000+0  00000+0 0  9993
2 43647  54.3167 308.7002 0005983  18.7802 341.2805  1.86232174 47528
BEIDOU-3 M15            
1 43648U 18078B   25285.07890624 -.00000044  00000+0  00000+0 0  9994
2 43648  54.3116 308.6779 0002554  20.1037 339.9442  1.86232124 47550
AEHF-4 (USA 288)        
1 43651U 18079A   25286.90215880 -.00000289  00000+0  00000+0 0  9998
2 43651   1.4904 342.7920 0057145   6.4864 290.6246  1.00274360 25825
HAIYANG-2B              
1 43655U 18081A   25286.96653722  .00000002  00000+0  45113-4 0  9993
2 43655  99.3361 294.4091 0000931 164.3054 195.8127 13.79308029350981
COSMOS 2528             
1 43657U 18082A   25286.81996392 -.00000029  00000+0  33039-4 0  9997
2 43657  67.1489 316.5462 0004943 252.5640 107.4905 13.96686506355541
CFOSAT                  
1 43662U 18083A   25286.96205023  .00006224  00000+0  32376-3 0  9998
2 43662  97.3652 293.7379 0001509 118.1173 242.0214 15.16392477385121
GOSAT 2 (IBUKI 1)       
1 43672U 18084B   25286.55191602  .00003645  00000+0  44131-3 0  9998
2 43672  97.8646  36.3327 0001452  90.0719 270.0662 14.84262394376974
KHALIFASAT              
1 43676U 18084F   25286.96461666  .00004120  00000+0  33686-3 0  9999
2 43676  98.1014  94.5371 0008176 199.6166 160.4743 14.99930190378840
TEN-KOH                 
1 43677U 18084G   25286.93526454  .00003517  00000+0  27860-3 0  9990
2 43677  98.0733 104.1983 0008669 194.7665 165.3306 15.01254647379190
DIWATA-2B               
1 43678U 18084H   25286.98425463  .00003949  00000+0  33119-3 0  9997
2 43678  98.1073 108.0408 0007337 211.5788 148.4994 14.98985993379318
STARS-AO                
1 43679U 18084J   25286.82511424  .00010161  00000+0  57934-3 0  9999
2 43679  98.0707 120.9257 0001352 307.3147  52.7959 15.12994612380169
AUTCUBE 2               
1 43681U 18084K   25286.74859361  .00007406  00000+0  49218-3 0  9992
2 43681  98.0843 115.0205 0009872 150.6929 209.4853 15.07471180379765
BEIDOU-3 G1             
1 43683U 18085A   25286.92197520 -.00000288  00000+0  00000+0 0  9991
2 43683   2.9547 104.3077 0003015  15.9932  14.4405  1.00271001 25594
COSMOS 2529 [GLONASS-M] 
1 43687U 18086A   25284.47384174  .00000015  00000+0  00000+0 0  9994
2 43687  64.2926 200.9910 0009410 257.2495 102.6827  2.13101925 53983
METOP-C                 
1 43689U 18087A   25286.92130802  .00000170  00000+0  97809-4 0  9996
2 43689  98.7016 345.5808 0001860 131.8770 228.2566 14.21479054359845
GSAT-29                 
1 43698U 18089A   25286.92651223  .00000071  00000+0  00000+0 0  9995
2 43698   0.0596  86.3237 0002576 135.2669 189.7218  1.00273265 25327
ES'HAIL 2               
1 43700U 18090A   25286.92070554  .00000131  00000+0  00000+0 0  9990
2 43700   0.0158 252.1263 0002049 353.3272 134.5424  1.00271300 25207
BEIDOU-3 M17            
1 43706U 18093A   25281.22535220  .00000034  00000+0  00000+0 0  9995
2 43706  54.1755 190.8460 0008107 297.9561 252.8540  1.86228101 46849
